name,address,city,postalZip,state,phone
Nonummy Corporation,"2458 Facilisis, Street",Bridgeport,72806,AK,7138865313
Ac Mattis Semper LLC,"P.O. Box 316, 9413 Gravida Rd.",Aurora,82125,MN,2267735838
Libero Proin LLC,"P.O. Box 989, 3377 Ipsum Rd.",Warren,65767,IN,8416281126
Erat Corp.,319-6032 Egestas Av.,Norman,73746,MS,5324284411
Ornare Lectus Inc.,872-4169 Dignissim Rd.,Duluth,71843,WI,0451487491
Risus Donec Associates,110-522 Quam Av.,Pocatello,25265,WI,4852616833
Ac Nulla Consulting,305-5693 Aenean Av.,Saint Louis,83215,OH,3577781631
Condimentum Donec Limited,Ap #978-5272 Nam St.,Joliet,79227,KY,6776115744
Malesuada Augue Ut Corporation,"P.O. Box 554, 6065 Eleifend Ave",Newport News,12121,CO,2804008647
Euismod Mauris Company,"P.O. Box 564, 3029 Cum Avenue",New Haven,11088,NE,5088427862
Non Leo Incorporated,"P.O. Box 487, 3032 Phasellus St.",Atlanta,11572,NV,2311316041
Torquent Per Foundation,Ap #844-8020 Morbi St.,Lansing,88696,TN,6341428542
Vestibulum Accumsan Neque Consulting,6037 Nulla St.,Olympia,56179,KS,3040776287
Adipiscing Lobortis Risus Incorporated,"P.O. Box 535, 351 Lectus Street",San Antonio,53100,LA,1134893765
Laoreet Institute,Ap #671-7923 Mauris Street,Chattanooga,30606,MN,4438102513
Curabitur Dictum LLC,"P.O. Box 832, 2728 Gravida Ave",Rochester,34244,MT,5631830397
Per Conubia Industries,Ap #121-7025 Massa St.,Memphis,76463,WA,1683818273
Mi Aliquam Consulting,474-381 Purus Ave,Dallas,27436,AR,8128263574
Pede Limited,740-5881 Facilisis St.,Lewiston,12737,KS,3987433483
